{
  "type": "FeatureCollection",
  "features": [
    {
      "type": "Feature",
      "properties": {
        "norad_id": 31913,
        "name": "FENGYUN 1C DEB",
        "group": "fengyun-1c-debris",
        "lat": 71.26991158412531,
        "lon": -121.74063724367775,
        "alt_km": 991.1646015186443,
        "timestamp": "2025-12-12T03:50:52.701896+00:00",
        "meta_object_name": "FENGYUN 1C DEB",
        "meta_object_id": "1999-025CLQ",
        "meta_epoch": "2025-12-08T01:06:13.929120",
        "meta_mean_motion": 13.91009259,
        "meta_eccentricity": 0.02081952,
        "meta_inclination": 99.2947,
        "meta_ra_of_asc_node": 263.0201,
        "meta_arg_of_pericenter": 324.8669,
        "meta_mean_anomaly": 33.8906,
        "meta_ephemeris_type": 0,
        "meta_classification_type": "U",
        "meta_norad_cat_id": 31913,
        "meta_element_set_no": 999,
        "meta_rev_at_epoch": 55821,
        "meta_bstar": 0.0095286258,
        "meta_mean_motion_dot": 0.00014234,
        "meta_mean_motion_ddot": 0,
        "tle_line1": "1 31913U 99025CLQ 25342.04599455  .00014234  00000+0  95286-2 0  9994",
        "tle_line2": "2 31913  99.2947 263.0201 0208195 324.8669  33.8906 13.91009259558215"
      },
      "geometry": {
        "type": "Point",
        "coordinates": [
          -121.74063724367775,
          71.26991158412531
        ]
      }
    },
    {
      "type": "Feature",
      "properties": {
        "norad_id": 31914,
        "name": "FENGYUN 1C DEB",
        "group": "fengyun-1c-debris",
        "lat": 78.4072975282292,
        "lon": 79.94833536729098,
        "alt_km": 582.9140445388857,
        "timestamp": "2025-12-12T03:50:52.701906+00:00",
        "meta_object_name": "FENGYUN 1C DEB",
        "meta_object_id": "1999-025CLR",
        "meta_epoch": "2025-12-11T14:13:08.484384",
        "meta_mean_motion": 14.55708247,
        "meta_eccentricity": 0.01831528,
        "meta_inclination": 99.0271,
        "meta_ra_of_asc_node": 208.5328,
        "meta_arg_of_pericenter": 72.6749,
        "meta_mean_anomaly": 289.439,
        "meta_ephemeris_type": 0,
        "meta_classification_type": "U",
        "meta_norad_cat_id": 31914,
        "meta_element_set_no": 999,
        "meta_rev_at_epoch": 68456,
        "meta_bstar": 0.00022542981,
        "meta_mean_motion_dot": 1.173e-05,
        "meta_mean_motion_ddot": 0,
        "tle_line1": "1 31914U 99025CLR 25345.59245931  .00001173  00000+0  22543-3 0  9990",
        "tle_line2": "2 31914  99.0271 208.5328 0183152  72.6749 289.4390 14.55708247684568"
      },
      "geometry": {
        "type": "Point",
        "coordinates": [
          79.94833536729098,
          78.4072975282292
        ]
      }
    },
    {
      "type": "Feature",
      "properties": {
        "norad_id": 31915,
        "name": "FENGYUN 1C DEB",
        "group": "fengyun-1c-debris",
        "lat": 29.9928443946911,
        "lon": -1.0263262542939766,
        "alt_km": 871.1635640518316,
        "timestamp": "2025-12-12T03:50:52.701917+00:00",
        "meta_object_name": "FENGYUN 1C DEB",
        "meta_object_id": "1999-025CLS",
        "meta_epoch": "2025-12-11T12:26:37.558464",
        "meta_mean_motion": 14.16204421,
        "meta_eccentricity": 0.01010015,
        "meta_inclination": 98.6309,
        "meta_ra_of_asc_node": 3.3808,
        "meta_arg_of_pericenter": 273.5126,
        "meta_mean_anomaly": 85.4501,
        "meta_ephemeris_type": 0,
        "meta_classification_type": "U",
        "meta_norad_cat_id": 31915,
        "meta_element_set_no": 999,
        "meta_rev_at_epoch": 64090,
        "meta_bstar": 0.0013687291,
        "meta_mean_motion_dot": 2.805e-05,
        "meta_mean_motion_ddot": 0,
        "tle_line1": "1 31915U 99025CLS 25345.51849026  .00002805  00000+0  13687-2 0  9999",
        "tle_line2": "2 31915  98.6309   3.3808 0101001 273.5126  85.4501 14.16204421640904"
      },
      "geometry": {
        "type": "Point",
        "coordinates": [
          -1.0263262542939766,
          29.9928443946911
        ]
      }
    },
    {
      "type": "Feature",
      "properties": {
        "norad_id": 31916,
        "name": "FENGYUN 1C DEB",
        "group": "fengyun-1c-debris",
        "lat": -17.821627815657767,
        "lon": -111.72628798353088,
        "alt_km": 804.5151187751035,
        "timestamp": "2025-12-12T03:50:52.701927+00:00",
        "meta_object_name": "FENGYUN 1C DEB",
        "meta_object_id": "1999-025CLT",
        "meta_epoch": "2025-12-07T12:18:07.719840",
        "meta_mean_motion": 14.32440747,
        "meta_eccentricity": 0.01470771,
        "meta_inclination": 99.3305,
        "meta_ra_of_asc_node": 66.3036,
        "meta_arg_of_pericenter": 111.6445,
        "meta_mean_anomaly": 250.0475,
        "meta_ephemeris_type": 0,
        "meta_classification_type": "U",
        "meta_norad_cat_id": 31916,
        "meta_element_set_no": 999,
        "meta_rev_at_epoch": 64452,
        "meta_bstar": 0.0024866504,
        "meta_mean_motion_dot": 7.544e-05,
        "meta_mean_motion_ddot": 0,
        "tle_line1": "1 31916U 99025CLT 25341.51258935  .00007544  00000+0  24867-2 0  9996",
        "tle_line2": "2 31916  99.3305  66.3036 0147077 111.6445 250.0475 14.32440747644523"
      },
      "geometry": {
        "type": "Point",
        "coordinates": [
          -111.72628798353088,
          -17.821627815657767
        ]
      }
    },
    {
      "type": "Feature",
      "properties": {
        "norad_id": 31917,
        "name": "FENGYUN 1C DEB",
        "group": "fengyun-1c-debris",
        "lat": 56.85790624972062,
        "lon": 171.96965403555882,
        "alt_km": 895.1819721547226,
        "timestamp": "2025-12-12T03:50:52.701938+00:00",
        "meta_object_name": "FENGYUN 1C DEB",
        "meta_object_id": "1999-025CLU",
        "meta_epoch": "2025-12-08T05:48:46.536192",
        "meta_mean_motion": 14.37587467,
        "meta_eccentricity": 0.01893942,
        "meta_inclination": 98.3603,
        "meta_ra_of_asc_node": 335.1413,
        "meta_arg_of_pericenter": 306.9375,
        "meta_mean_anomaly": 69.4379,
        "meta_ephemeris_type": 0,
        "meta_classification_type": "U",
        "meta_norad_cat_id": 31917,
        "meta_element_set_no": 999,
        "meta_rev_at_epoch": 96357,
        "meta_bstar": 0.0010720453,
        "meta_mean_motion_dot": 3.907e-05,
        "meta_mean_motion_ddot": 0,
        "tle_line1": "1 31917U 99025CLU 25342.24220528  .00003907  00000+0  10720-2 0  9997",
        "tle_line2": "2 31917  98.3603 335.1413 0189394 306.9375  69.4379 14.37587467963579"
      },
      "geometry": {
        "type": "Point",
        "coordinates": [
          171.96965403555882,
          56.85790624972062
        ]
      }
    },
    {
      "type": "Feature",
      "properties": {
        "norad_id": 31919,
        "name": "FENGYUN 1C DEB",
        "group": "fengyun-1c-debris",
        "lat": -63.11736355348366,
        "lon": 146.96439833011203,
        "alt_km": 742.3187029605479,
        "timestamp": "2025-12-12T03:50:52.701948+00:00",
        "meta_object_name": "FENGYUN 1C DEB",
        "meta_object_id": "1999-025CLW",
        "meta_epoch": "2025-12-11T04:03:52.852608",
        "meta_mean_motion": 14.45743539,
        "meta_eccentricity": 0.01021378,
        "meta_inclination": 99.1017,
        "meta_ra_of_asc_node": 127.4672,
        "meta_arg_of_pericenter": 211.2831,
        "meta_mean_anomaly": 328.2557,
        "meta_ephemeris_type": 0,
        "meta_classification_type": "U",
        "meta_norad_cat_id": 31919,
        "meta_element_set_no": 999,
        "meta_rev_at_epoch": 97058,
        "meta_bstar": 0.00085071953,
        "meta_mean_motion_dot": 3.161e-05,
        "meta_mean_motion_ddot": 0,
        "tle_line1": "1 31919U 99025CLW 25345.16936172  .00003161  00000+0  85072-3 0  9997",
        "tle_line2": "2 31919  99.1017 127.4672 0102137 211.2831 328.2557 14.45743539970589"
      },
      "geometry": {
        "type": "Point",
        "coordinates": [
          146.96439833011203,
          -63.11736355348366
        ]
      }
    },
    {
      "type": "Feature",
      "properties": {
        "norad_id": 31921,
        "name": "FENGYUN 1C DEB",
        "group": "fengyun-1c-debris",
        "lat": 59.60496154727076,
        "lon": 74.82761913043467,
        "alt_km": 1099.5279640041326,
        "timestamp": "2025-12-12T03:50:52.701958+00:00",
        "meta_object_name": "FENGYUN 1C DEB",
        "meta_object_id": "1999-025CLY",
        "meta_epoch": "2025-12-08T10:12:20.735136",
        "meta_mean_motion": 13.75255965,
        "meta_eccentricity": 0.02021401,
        "meta_inclination": 99.3376,
        "meta_ra_of_asc_node": 234.8801,
        "meta_arg_of_pericenter": 276.3573,
        "meta_mean_anomaly": 81.4593,
        "meta_ephemeris_type": 0,
        "meta_classification_type": "U",
        "meta_norad_cat_id": 31921,
        "meta_element_set_no": 999,
        "meta_rev_at_epoch": 92247,
        "meta_bstar": 0.0017833511,
        "meta_mean_motion_dot": 1.939e-05,
        "meta_mean_motion_ddot": 0,
        "tle_line1": "1 31921U 99025CLY 25342.42523999  .00001939  00000+0  17834-2 0  9996",
        "tle_line2": "2 31921  99.3376 234.8801 0202140 276.3573  81.4593 13.75255965922475"
      },
      "geometry": {
        "type": "Point",
        "coordinates": [
          74.82761913043467,
          59.60496154727076
        ]
      }
    }
  ]
}